NORAD_CAT_ID,OBJECT_NAME,OBJECT_TYPE,EPOCH,MEAN_MOTION,ECCENTRICITY,INCLINATION,RA_OF_ASC_NODE,ARG_OF_PERICENTER,MEAN_ANOMALY,BSTAR,MEAN_MOTION_DOT,MEAN_MOTION_DDOT,TLE_LINE0,TLE_LINE1,TLE_LINE2,SEMIMAJOR_AXIS,PERIOD,APOGEE,PERIGEE,DECAYED
52690.0,STARLINK-4035,PAYLOAD,2024-06-23 02:07:48,15.0883761,0.0001369,53.2175,68.0611,86.5031,273.6118,0.00011225,1.499e-05,0.0,0 STARLINK-4035,1 52690U 22053AL  24175.08875645  .00001499  00000-0  11225-3 0  9993,2 52690  53.2175  68.0611 0001369  86.5031 273.6118 15.08837610116455,6917.888,95.438,540.7,538.806,0.0
52690.0,STARLINK-4035,PAYLOAD,2024-06-23 22:47:48,15.08847826,0.0001831,53.2184,64.1958,63.3688,296.7491,8.1092e-05,1.003e-05,0.0,0 STARLINK-4035,1 52690U 22053AL  24175.94987166  .00001003  00000-0  81092-4 0  9991,2 52690  53.2184  64.1958 0001831  63.3688 296.7491 15.08847826116956,6917.856,95.437,540.988,538.455,0.0
52690.0,STARLINK-4035,PAYLOAD,2024-06-24 01:58:34,15.08865699,0.0001512,53.2181,63.5995,83.8686,276.2478,-2.1062e-05,-6.23e-06,0.0,0 STARLINK-4035,1 52690U 22053AL  24176.08234078 -.00000623  00000-0 -21062-4 0  9994,2 52690  53.2181  63.5995 0001512  83.8686 276.2478 15.08865699116606,6917.802,95.436,540.713,538.621,0.0
52690.0,STARLINK-4035,PAYLOAD,2024-06-24 21:03:12,15.08844658,0.0001734,53.2171,60.03,100.8666,259.2521,5.8113e-05,6.37e-06,0.0,0 STARLINK-4035,1 52690U 22053AL  24176.87722931  .00000637  00000-0  58113-4 0  9991,2 52690  53.2171  60.0300 0001734 100.8666 259.2521 15.08844658116726,6917.866,95.437,540.931,538.532,0.0
52690.0,STARLINK-4035,PAYLOAD,2024-06-24 22:38:35,15.08844615,0.0001691,53.2177,59.7342,75.4597,284.6583,7.762e-05,9.48e-06,0.0,0 STARLINK-4035,1 52690U 22053AL  24176.94347034  .00000948  00000-0  77620-4 0  9995,2 52690  53.2177  59.7342 0001691  75.4597 284.6583 15.08844615117101,6917.866,95.437,540.901,538.561,0.0
52690.0,STARLINK-4035,PAYLOAD,2024-06-25 22:29:22,15.08851168,0.0001578,53.2176,55.2762,96.7968,263.3204,5.8705e-06,-1.95e-06,0.0,0 STARLINK-4035,1 52690U 22053AL  24177.93706394 -.00000195  00000-0  58705-5 0  9992,2 52690  53.2176  55.2762 0001578  96.7968 263.3204 15.08851168117250,6917.846,95.437,540.803,538.62,0.0
52690.0,STARLINK-4035,PAYLOAD,2024-06-26 22:20:10,15.08837847,0.0002711,53.2186,50.8181,44.6864,315.4346,-8.6996e-05,-1.673e-05,0.0,0 STARLINK-4035,1 52690U 22053AL  24178.93068182 -.00001673  00000-0 -86996-4 0  9994,2 52690  53.2186  50.8181 0002711  44.6864 315.4346 15.08837847117405,6917.887,95.438,541.627,537.877,0.0
52690.0,STARLINK-4035,PAYLOAD,2024-06-27 20:35:34,15.0883597,0.0001344,53.2177,46.652,90.1284,269.9862,-2.7033e-05,-7.18e-06,0.0,0 STARLINK-4035,1 52690U 22053AL  24179.85804112 -.00000718  00000-0 -27033-4 0  9993,2 52690  53.2177  46.6520 0001344  90.1284 269.9862 15.08835970117544,6917.893,95.438,540.687,538.828,0.0
52690.0,STARLINK-4035,PAYLOAD,2024-06-28 07:43:16,15.08835864,0.0001459,53.2183,44.5705,92.9864,267.1295,0.0001204,1.629e-05,0.0,0 STARLINK-4035,1 52690U 22053AL  24180.32171982  .00001629  00000-0  12040-3 0  9990,2 52690  53.2183  44.5705 0001459  92.9864 267.1295 15.08835864117243,6917.893,95.438,540.767,538.749,0.0
52690.0,STARLINK-4035,PAYLOAD,2024-06-28 20:26:21,15.08842392,0.0001359,53.2166,42.1927,97.1005,263.0142,0.00024982,3.69e-05,0.0,0 STARLINK-4035,1 52690U 22053AL  24180.85163829  .00003690  00000-0  24982-3 0  9997,2 52690  53.2166  42.1927 0001359  97.1005 263.0142 15.08842392117696,6917.873,95.437,540.678,538.798,0.0
52690.0,STARLINK-4035,PAYLOAD,2024-06-29 13:55:36,15.0884004,0.0001406,53.2173,38.9235,81.7877,278.3274,0.0001207,1.634e-05,0.0,0 STARLINK-4035,1 52690U 22053AL  24181.58028179  .00001634  00000-0  12070-3 0  9997,2 52690  53.2173  38.9235 0001406  81.7877 278.3274 15.08840040117804,6917.88,95.438,540.718,538.773,0.0
52690.0,STARLINK-4035,PAYLOAD,2024-06-29 20:17:09,15.08836413,0.0001076,53.2162,37.7275,91.294,268.8175,-1.8148e-05,-5.77e-06,0.0,0 STARLINK-4035,1 52690U 22053AL  24181.84524341 -.00000577  00000-0 -18148-4 0  9998,2 52690  53.2162  37.7275 0001076  91.2940 268.8175 15.08836413117479,6917.891,95.438,540.501,539.012,0.0
52690.0,STARLINK-4035,PAYLOAD,2024-06-29 21:52:32,15.08836749,9.92e-05,53.2156,37.4295,88.5655,271.545,-2.081e-05,-6.19e-06,0.0,0 STARLINK-4035,1 52690U 22053AL  24181.91148312 -.00000619  00000-0 -20810-4 0  9992,2 52690  53.2156  37.4295 0000992  88.5655 271.5450 15.08836749117850,6917.89,95.438,540.442,539.069,0.0
52690.0,STARLINK-4035,PAYLOAD,2024-06-30 07:24:51,15.08832791,0.0001107,53.2163,35.646,79.6159,280.4958,-4.9721e-05,-1.079e-05,0.0,0 STARLINK-4035,1 52690U 22053AL  24182.30892729 -.00001079  00000-0 -49721-4 0  9997,2 52690  53.2163  35.6460 0001107  79.6159 280.4958 15.08832791117913,6917.902,95.438,540.533,539.002,0.0
52690.0,STARLINK-4035,PAYLOAD,2024-06-30 21:43:19,15.08846232,0.0001275,53.2174,32.97,88.035,272.0788,2.8732e-05,1.69e-06,0.0,0 STARLINK-4035,1 52690U 22053AL  24182.90508186  .00000169  00000-0  28732-4 0  9990,2 52690  53.2174  32.9700 0001275  88.0350 272.0788 15.08846232118009,6917.861,95.437,540.608,538.844,0.0
52690.0,STARLINK-4035,PAYLOAD,2024-07-01 07:15:38,15.08842089,0.00011,53.2165,31.1863,96.9559,263.1559,0.0001714,2.441e-05,0.0,0 STARLINK-4035,1 52690U 22053AL  24183.30252464  .00002441  00000-0  17140-3 0  9995,2 52690  53.2165  31.1863 0001100  96.9559 263.1559 15.08842089118065,6917.874,95.437,540.5,538.978,0.0
52690.0,STARLINK-4035,PAYLOAD,2024-07-01 19:58:42,15.08843612,9.7e-05,53.2171,28.8104,84.9528,275.1575,0.00023186,3.405e-05,0.0,0 STARLINK-4035,1 52690U 22053AL  24183.83244047  .00003405  00000-0  23186-3 0  9999,2 52690  53.2171  28.8104 0000970  84.9528 275.1575 15.08843612118143,6917.869,95.437,540.405,539.063,0.0
52690.0,STARLINK-4035,PAYLOAD,2024-07-01 23:09:28,15.08850794,0.0001133,53.2178,28.2127,95.8265,264.2857,0.00023285,3.421e-05,0.0,0 STARLINK-4035,1 52690U 22053AL  24183.96491554  .00003421  00000-0  23285-3 0  9998,2 52690  53.2178  28.2127 0001133  95.8265 264.2857 15.08850794117791,6917.847,95.437,540.496,538.929,0.0
52690.0,STARLINK-4035,PAYLOAD,2024-07-02 07:06:25,15.08836317,0.0001656,53.2187,26.7279,83.3528,276.7652,0.00011943,1.613e-05,0.0,0 STARLINK-4035,1 52690U 22053AL  24184.29612976  .00001613  00000-0  11943-3 0  9997,2 52690  53.2187  26.7279 0001656  83.3528 276.7652 15.08836317117848,6917.892,95.438,540.902,538.611,0.0
52690.0,STARLINK-4035,PAYLOAD,2024-07-02 19:49:30,15.08840514,0.0001342,53.2187,24.3482,88.273,271.8416,3.9114e-05,3.35e-06,0.0,0 STARLINK-4035,1 52690U 22053AL  24184.82604649  .00000335  00000-0  39114-4 0  9995,2 52690  53.2187  24.3482 0001342  88.2730 271.8416 15.08840514118297,6917.879,95.438,540.672,538.815,0.0
52690.0,STARLINK-4035,PAYLOAD,2024-07-03 19:40:17,15.08844618,0.0001173,53.2183,19.888,90.3433,269.7694,9.0055e-05,1.146e-05,0.0,0 STARLINK-4035,1 52690U 22053AL  24185.81964213  .00001146  00000-0  90055-4 0  9993,2 52690  53.2183  19.8880 0001173  90.3433 269.7694 15.08844618118079,6917.866,95.437,540.543,538.92,0.0
52690.0,STARLINK-4035,PAYLOAD,2024-07-04 13:09:32,15.08834251,0.0001238,53.2177,16.6152,88.9007,271.2127,3.9474e-05,3.4e-06,0.0,0 STARLINK-4035,1 52690U 22053AL  24186.54828815  .00000340  00000-0  39474-4 0  9994,2 52690  53.2177  16.6152 0001238  88.9007 271.2127 15.08834251118184,6917.898,95.438,540.619,538.907,0.0
52690.0,STARLINK-4035,PAYLOAD,2024-07-04 22:41:51,15.08827045,0.000113,53.2181,14.8307,91.9209,268.1913,0.00020691,3.006e-05,0.0,0 STARLINK-4035,1 52690U 22053AL  24186.94573020  .00003006  00000-0  20691-3 0  9995,2 52690  53.2181  14.8307 0001130  91.9209 268.1913 15.08827045118619,6917.92,95.438,540.567,539.003,0.0
52690.0,STARLINK-4035,PAYLOAD,2024-07-05 05:03:24,15.08816512,0.0001249,53.2188,13.6421,97.2286,262.8848,0.0004301,6.559e-05,0.0,0 STARLINK-4035,1 52690U 22053AL  24187.21069537  .00006559  00000-0  43010-3 0  9995,2 52690  53.2188  13.6421 0001249  97.2286 262.8848 15.08816512118283,6917.952,95.439,540.681,538.953,0.0
52690.0,STARLINK-4035,PAYLOAD,2024-07-05 19:21:50,15.0884975,9.86e-05,53.2171,10.9692,85.7851,274.3254,7.1373e-05,8.49e-06,0.0,0 STARLINK-4035,1 52690U 22053AL  24187.80683940  .00000849  00000-0  71373-4 0  9990,2 52690  53.2171  10.9692 0000986  85.7851 274.3254 15.08849750118371,6917.851,95.437,540.398,539.033,0.0
52690.0,STARLINK-4035,PAYLOAD,2024-07-05 22:32:36,15.08852226,9.89e-05,53.2171,10.3739,85.5623,274.5482,9.9988e-05,1.304e-05,0.0,0 STARLINK-4035,1 52690U 22053AL  24187.93931679  .00001304  00000-0  99988-4 0  9998,2 52690  53.2171  10.3739 0000989  85.5623 274.5482 15.08852226118765,6917.843,95.437,540.392,539.024,0.0
52690.0,STARLINK-4035,PAYLOAD,2024-07-06 19:12:38,15.08838718,9.5e-05,53.2175,6.5073,79.6526,280.4573,7.7656e-05,9.48e-06,0.0,0 STARLINK-4035,1 52690U 22053AL  24188.80044812  .00000948  00000-0  77656-4 0  9990,2 52690  53.2175   6.5073 0000950  79.6526 280.4573 15.08838718118522,6917.884,95.438,540.407,539.092,0.0
52690.0,STARLINK-4035,PAYLOAD,2024-07-06 22:23:24,15.0884008,9.68e-05,53.2175,5.9125,78.9151,281.195,8.8675e-05,1.124e-05,0.0,0 STARLINK-4035,1 52690U 22053AL  24188.93292760  .00001124  00000-0  88675-4 0  9991,2 52690  53.2175   5.9125 0000968  78.9151 281.1950 15.08840080118913,6917.88,95.438,540.415,539.075,0.0
52690.0,STARLINK-4035,PAYLOAD,2024-07-07 11:06:30,15.08832421,0.0001013,53.2175,3.5345,91.2319,268.8789,3.6982e-05,3.01e-06,0.0,0 STARLINK-4035,1 52690U 22053AL  24189.46285515  .00000301  00000-0  36982-4 0  9990,2 52690  53.2175   3.5345 0001013  91.2319 268.8789 15.08832421118627,6917.904,95.438,540.469,539.068,0.0
52690.0,STARLINK-4035,PAYLOAD,2024-07-07 19:03:25,15.08844027,0.0001149,53.2174,2.0476,92.4908,267.6215,5.9435e-06,-1.93e-06,0.0,0 STARLINK-4035,1 52690U 22053AL  24189.79404447 -.00000193  00000-0  59435-5 0  9992,2 52690  53.2174   2.0476 0001149  92.4908 267.6215 15.08844027118673,6917.868,95.437,540.528,538.938,0.0
